NORAD_CAT_ID,OBJECT_NAME,OBJECT_TYPE,EPOCH,MEAN_MOTION,ECCENTRICITY,INCLINATION,RA_OF_ASC_NODE,ARG_OF_PERICENTER,MEAN_ANOMALY,BSTAR,MEAN_MOTION_DOT,MEAN_MOTION_DDOT,TLE_LINE0,TLE_LINE1,TLE_LINE2,SEMIMAJOR_AXIS,PERIOD,APOGEE,PERIGEE,DECAYED
54077.0,STARLINK-5171,PAYLOAD,2023-07-07 19:18:48,15.08844931,8.7e-05,53.2182,24.7183,91.998,268.1112,0.00012871,1.762e-05,0.0,0 STARLINK-5171,1 54077U 22136AC  23188.80472893  .00001762  00000-0  12871-3 0  9998,2 54077  53.2182  24.7183 0000870  91.9980 268.1112 15.08844931 40280,6917.865,95.437,540.332,539.128,0.0
54077.0,STARLINK-5171,PAYLOAD,2023-07-08 06:26:30,15.08839846,9.85e-05,53.2189,22.6359,86.1918,273.9187,8.6474e-05,1.089e-05,0.0,0 STARLINK-5171,1 54077U 22136AC  23189.26841402  .00001089  00000-0  86474-4 0  9998,2 54077  53.2189  22.6359 0000985  86.1918 273.9187 15.08839846 40356,6917.881,95.438,540.427,539.064,0.0
54077.0,STARLINK-5171,PAYLOAD,2023-07-09 12:38:50,15.0883766,0.0001052,53.219,16.9866,100.1937,259.9174,3.4001e-05,2.53e-06,0.0,0 STARLINK-5171,1 54077U 22136AC  23190.52697738  .00000253  00000-0  34001-4 0  9991,2 54077  53.2190  16.9866 0001052 100.1937 259.9174 15.08837660 40544,6917.888,95.438,540.48,539.025,0.0
54077.0,STARLINK-5171,PAYLOAD,2023-07-10 18:51:09,15.08843856,9.97e-05,53.2182,11.3367,84.3589,275.7517,0.00014509,2.022e-05,0.0,0 STARLINK-5171,1 54077U 22136AC  23191.78553168  .00002022  00000-0  14509-3 0  9994,2 54077  53.2182  11.3367 0000997  84.3589 275.7517 15.08843856 40735,6917.869,95.437,540.423,539.044,0.0
54077.0,STARLINK-5171,PAYLOAD,2023-07-11 04:23:29,15.08838024,9.72e-05,53.2183,9.5527,82.6211,277.4892,7.7319e-05,9.43e-06,0.0,0 STARLINK-5171,1 54077U 22136AC  23192.18297740  .00000943  00000-0  77319-4 0  9999,2 54077  53.2183   9.5527 0000972  82.6211 277.4892 15.08838024 40791,6917.886,95.438,540.424,539.079,0.0
54077.0,STARLINK-5171,PAYLOAD,2023-07-12 12:11:12,15.08838776,0.0001149,53.2186,3.6059,94.1985,265.9139,-1.386e-06,-3.1e-06,0.0,0 STARLINK-5171,1 54077U 22136AC  23193.50778024 -.00000310  00000-0 -13860-5 0  9997,2 54077  53.2186   3.6059 0001149  94.1985 265.9139 15.08838776 40994,6917.884,95.438,540.544,538.954,0.0
54077.0,STARLINK-5171,PAYLOAD,2023-07-13 16:48:08,15.0884122,0.0001044,53.2189,358.2537,95.8228,264.2883,2.1866e-05,6e-07,0.0,0 STARLINK-5171,1 54077U 22136AC  23194.70010129  .00000060  00000-0  21866-4 0  9999,2 54077  53.2189 358.2537 0001044  95.8228 264.2883 15.08841220 41176,6917.877,95.437,540.464,539.019,0.0
54077.0,STARLINK-5171,PAYLOAD,2023-07-14 19:49:41,15.08847989,8.93e-05,53.2182,353.1961,53.4745,306.6329,0.00015599,2.196e-05,0.0,0 STARLINK-5171,1 54077U 22136AC  23195.82617661  .00002196  00000-0  15599-3 0  9994,2 54077  53.2182 353.1961 0000893  53.4745 306.6329 15.08847989 41342,6917.856,95.437,540.339,539.103,0.0
54077.0,STARLINK-5171,PAYLOAD,2023-07-15 03:46:37,15.08837464,0.0001134,53.2185,351.7108,84.5116,275.6005,7.7207e-05,9.41e-06,0.0,0 STARLINK-5171,1 54077U 22136AC  23196.15738298  .00000941  00000-0  77207-4 0  9992,2 54077  53.2185 351.7108 0001134  84.5116 275.6005 15.08837464 41396,6917.888,95.438,540.538,538.969,0.0
54077.0,STARLINK-5171,PAYLOAD,2023-07-16 09:58:57,15.08837719,0.0001193,53.218,346.0593,89.1002,271.0127,7.5693e-05,9.17e-06,0.0,0 STARLINK-5171,1 54077U 22136AC  23197.41594664  .00000917  00000-0  75693-4 0  9999,2 54077  53.2180 346.0593 0001193  89.1002 271.0127 15.08837719 41585,6917.887,95.438,540.578,538.927,0.0
54077.0,STARLINK-5171,PAYLOAD,2023-07-16 17:55:53,15.08847481,0.0001133,53.2176,344.5729,90.8076,269.3046,0.00013333,1.835e-05,0.0,0 STARLINK-5171,1 54077U 22136AC  23197.74714171  .00001835  00000-0  13333-3 0  9994,2 54077  53.2176 344.5729 0001133  90.8076 269.3046 15.08847481 41631,6917.858,95.437,540.506,538.939,0.0
54077.0,STARLINK-5171,PAYLOAD,2023-07-17 16:11:17,15.0884421,0.0001217,53.2185,340.4083,99.5962,260.5168,0.00037844,5.741e-05,0.0,0 STARLINK-5171,1 54077U 22136AC  23198.67450398  .00005741  00000-0  37844-3 0  9998,2 54077  53.2185 340.4083 0001217  99.5962 260.5168 15.08844210 41772,6917.868,95.437,540.574,538.891,0.0
54077.0,STARLINK-5171,PAYLOAD,2023-07-18 14:26:40,15.08845831,0.0001298,53.218,336.2474,87.1505,272.9635,8.3107e-05,1.035e-05,0.0,0 STARLINK-5171,1 54077U 22136AC  23199.60185979  .00001035  00000-0  83107-4 0  9998,2 54077  53.2180 336.2474 0001298  87.1505 272.9635 15.08845831 41911,6917.863,95.437,540.626,538.83,0.0
54077.0,STARLINK-5171,PAYLOAD,2023-07-19 09:31:18,15.08830937,0.0001642,53.2186,332.6787,111.7903,248.3264,-0.00016621,-2.932e-05,0.0,0 STARLINK-5171,1 54077U 22136AC  23200.39674747 -.00002932  00000-0 -16621-3 0  9998,2 54077  53.2186 332.6787 0001642 111.7903 248.3264 15.08830937 42033,6917.908,95.438,540.909,538.637,0.0
54077.0,STARLINK-5171,PAYLOAD,2023-07-20 17:19:01,15.08851078,0.0001167,53.218,326.7326,101.5607,258.5517,0.00011609,1.561e-05,0.0,0 STARLINK-5171,1 54077U 22136AC  23201.72154118  .00001561  00000-0  11609-3 0  9997,2 54077  53.2180 326.7326 0001167 101.5607 258.5517 15.08851078 42235,6917.847,95.437,540.519,538.904,0.0
54077.0,STARLINK-5171,PAYLOAD,2023-07-24 07:09:51,15.08839745,0.0001173,53.2161,310.6759,92.3832,267.7294,0.00024417,3.6e-05,0.0,0 STARLINK-5171,1 54077U 22136AC  23205.29851292  .00003600  00000-0  24417-3 0  9997,2 54077  53.2161 310.6759 0001173  92.3832 267.7294 15.08839745 42297,6917.881,95.438,540.558,538.935,0.0
54077.0,STARLINK-5171,PAYLOAD,2023-07-25 11:46:47,15.08841475,0.0001096,53.2169,305.3213,108.3973,251.7138,8.2308e-05,1.022e-05,0.0,0 STARLINK-5171,1 54077U 22136AC  23206.49083101  .00001022  00000-0  82308-4 0  9996,2 54077  53.2169 305.3213 0001096 108.3973 251.7138 15.08841475 42472,6917.876,95.437,540.499,538.983,0.0
54077.0,STARLINK-5171,PAYLOAD,2023-07-26 06:51:25,15.08838243,0.0001046,53.2169,301.7553,95.7335,264.3776,4.2668e-05,3.91e-06,0.0,0 STARLINK-5171,1 54077U 22136AC  23207.28571502  .00000391  00000-0  42668-4 0  9994,2 54077  53.2169 301.7553 0001046  95.7335 264.3776 15.08838243 42595,6917.886,95.438,540.474,539.027,0.0
54077.0,STARLINK-5171,PAYLOAD,2023-07-26 22:45:16,15.08845839,0.0001166,53.2171,298.7822,102.28,257.8323,0.00020212,2.931e-05,0.0,0 STARLINK-5171,1 54077U 22136AC  23207.94810345  .00002931  00000-0  20212-3 0  9990,2 54077  53.2171 298.7822 0001166 102.2800 257.8323 15.08845839 43175,6917.863,95.437,540.534,538.921,0.0
54077.0,STARLINK-5171,PAYLOAD,2023-07-27 05:06:49,15.0884239,0.0001195,53.2177,297.5955,94.6991,265.4138,0.00015725,2.216e-05,0.0,0 STARLINK-5171,1 54077U 22136AC  23208.21306742  .00002216  00000-0  15725-3 0  9991,2 54077  53.2177 297.5955 0001195  94.6991 265.4138 15.08842390 43215,6917.873,95.437,540.565,538.911,0.0
54077.0,STARLINK-5171,PAYLOAD,2023-07-27 22:36:04,15.08833438,0.0001162,53.2174,294.3235,96.57,263.5425,2.5051e-05,1.11e-06,0.0,0 STARLINK-5171,1 54077U 22136AC  23208.94171721  .00000111  00000-0  25051-4 0  9994,2 54077  53.2174 294.3235 0001162  96.5700 263.5425 15.08833438 43324,6917.9,95.438,540.569,538.962,0.0
54077.0,STARLINK-5171,PAYLOAD,2023-07-28 04:57:37,15.08827789,0.0001226,53.2176,293.1339,101.3075,258.8055,8.7721e-05,1.108e-05,0.0,0 STARLINK-5171,1 54077U 22136AC  23209.20667871  .00001108  00000-0  87721-4 0  9999,2 54077  53.2176 293.1339 0001226 101.3075 258.8055 15.08827789 42887,6917.918,95.438,540.631,538.935,0.0
54077.0,STARLINK-5171,PAYLOAD,2023-07-29 09:34:25,15.08938665,0.0002424,53.2159,287.7788,150.6543,209.4585,0.00092009,0.00014425,0.0,0 STARLINK-5171,1 54077U 22136AC  23210.39890878  .00014425  00000-0  92009-3 0  9996,2 54077  53.2159 287.7788 0002424 150.6543 209.4585 15.08938665 43543,6917.579,95.431,541.121,537.767,0.0
54077.0,STARLINK-5171,PAYLOAD,2023-07-29 19:06:52,15.08823244,0.0001368,53.2173,285.9953,60.9417,299.1712,7.2691e-05,8.69e-06,0.0,0 STARLINK-5171,1 54077U 22136AC  23210.79644666  .00000869  00000-0  72691-4 0  9995,2 54077  53.2173 285.9953 0001368  60.9417 299.1712 15.08823244 43603,6917.932,95.439,540.743,538.85,0.0
54077.0,STARLINK-5171,PAYLOAD,2023-07-30 11:00:43,15.08841132,0.0001179,53.2153,283.0206,91.9716,268.1411,0.00016427,2.328e-05,0.0,0 STARLINK-5171,1 54077U 22136AC  23211.45883837  .00002328  00000-0  16427-3 0  9990,2 54077  53.2153 283.0206 0001179  91.9716 268.1411 15.08841132 43706,6917.877,95.437,540.558,538.926,0.0
54077.0,STARLINK-5171,PAYLOAD,2023-07-31 21:59:12,15.08847025,0.0001237,53.2145,276.4791,81.9202,278.1931,0.00031669,4.757e-05,0.0,0 STARLINK-5171,1 54077U 22136AC  23212.91611779  .00004757  00000-0  31669-3 0  9999,2 54077  53.2145 276.4791 0001237  81.9202 278.1931 15.08847025 43925,6917.859,95.437,540.58,538.868,0.0
54077.0,STARLINK-5171,PAYLOAD,2023-08-01 10:42:17,15.0884374,0.0001278,53.2153,274.1,84.5633,275.5505,0.00012475,1.698e-05,0.0,0 STARLINK-5171,1 54077U 22136AC  23213.44603788  .00001698  00000-0  12475-3 0  9994,2 54077  53.2153 274.1000 0001278  84.5633 275.5505 15.08843740 44002,6917.869,95.437,540.618,538.85,0.0
54077.0,STARLINK-5171,PAYLOAD,2023-08-03 02:26:56,15.08842617,0.0001199,53.2154,266.6663,89.4484,270.6646,0.00010528,1.388e-05,0.0,0 STARLINK-5171,1 54077U 22136AC  23215.10203726  .00001388  00000-0  10528-3 0  9990,2 54077  53.2154 266.6663 0001199  89.4484 270.6646 15.08842617 44255,6917.872,95.437,540.567,538.908,0.0
54077.0,STARLINK-5171,PAYLOAD,2023-08-04 02:17:43,15.08835493,0.0001111,53.2159,262.2058,89.6534,270.4585,3.544e-05,2.76e-06,0.0,0 STARLINK-5171,1 54077U 22136AC  23216.09564442  .00000276  00000-0  35440-4 0  9990,2 54077  53.2159 262.2058 0001111  89.6534 270.4585 15.08835493 44403,6917.894,95.438,540.528,538.991,0.0
54077.0,STARLINK-5171,PAYLOAD,2023-08-05 10:05:26,15.08843101,0.0001126,53.2149,256.2569,101.2787,258.8331,9.4935e-05,1.224e-05,0.0,0 STARLINK-5171,1 54077U 22136AC  23217.42044096  .00001224  00000-0  94935-4 0  9994,2 54077  53.2149 256.2569 0001126 101.2787 258.8331 15.08843101 44605,6917.871,95.437,540.515,538.957,0.0
